CCSDS_OMM_VERS = 2.0
CREATION_DATE  = 
ORIGINATOR     = 

OBJECT_NAME    = LEMUR-2-ALEXANDER
OBJECT_ID      = 2018-046F
CENTER_NAME    = EARTH
REF_FRAME      = TEME
TIME_SYSTEM    = UTC
MEAN_ELEMENT_THEORY = SGP/SGP4

EPOCH          = 2020-12-14T09:05:59.843040
MEAN_MOTION    = 15.32431521
ECCENTRICITY   = .0006564
INCLINATION    = 51.6414
RA_OF_ASC_NODE = 314.8591
ARG_OF_PERICENTER = 220.3021
MEAN_ANOMALY   = 139.7475

EPHEMERIS_TYPE = 0
CLASSIFICATION_TYPE = U
NORAD_CAT_ID   = 43559
ELEMENT_SET_NO = 999
REV_AT_EPOCH   = 13477
BSTAR          = .19596E-3
MEAN_MOTION_DOT = .5865E-4
MEAN_MOTION_DDOT = 0

CCSDS_OMM_VERS = 2.0
CREATION_DATE  = 
ORIGINATOR     = 

OBJECT_NAME    = LEMUR-2-YUASA
OBJECT_ID      = 2018-046G
CENTER_NAME    = EARTH
REF_FRAME      = TEME
TIME_SYSTEM    = UTC
MEAN_ELEMENT_THEORY = SGP/SGP4

EPOCH          = 2020-12-14T07:53:20.881824
MEAN_MOTION    = 15.32193877
ECCENTRICITY   = .0006713
INCLINATION    = 51.6410
RA_OF_ASC_NODE = 315.9999
ARG_OF_PERICENTER = 234.4200
MEAN_ANOMALY   = 125.6156

EPHEMERIS_TYPE = 0
CLASSIFICATION_TYPE = U
NORAD_CAT_ID   = 43560
ELEMENT_SET_NO = 999
REV_AT_EPOCH   = 13497
BSTAR          = .19448E-3
MEAN_MOTION_DOT = .5773E-4
MEAN_MOTION_DDOT = 0

CCSDS_OMM_VERS = 2.0
CREATION_DATE  = 
ORIGINATOR     = 

OBJECT_NAME    = LEMUR-2-TOMHENDERSON
OBJECT_ID      = 2018-046H
CENTER_NAME    = EARTH
REF_FRAME      = TEME
TIME_SYSTEM    = UTC
MEAN_ELEMENT_THEORY = SGP/SGP4

EPOCH          = 2020-12-14T18:18:46.467648
MEAN_MOTION    = 15.31901939
ECCENTRICITY   = .0006838
INCLINATION    = 51.6420
RA_OF_ASC_NODE = 314.3901
ARG_OF_PERICENTER = 235.7321
MEAN_ANOMALY   = 124.3013

EPHEMERIS_TYPE = 0
CLASSIFICATION_TYPE = U
NORAD_CAT_ID   = 43561
ELEMENT_SET_NO = 999
REV_AT_EPOCH   = 13459
BSTAR          = .14947E-3
MEAN_MOTION_DOT = .4308E-4
MEAN_MOTION_DDOT = 0

CCSDS_OMM_VERS = 2.0
CREATION_DATE  = 
ORIGINATOR     = 

OBJECT_NAME    = SIRIUSSAT-1
OBJECT_ID      = 1998-067PG
CENTER_NAME    = EARTH
REF_FRAME      = TEME
TIME_SYSTEM    = UTC
MEAN_ELEMENT_THEORY = SGP/SGP4

EPOCH          = 2020-12-09T13:12:48.091968
MEAN_MOTION    = 16.39998780
ECCENTRICITY   = .0009437
INCLINATION    = 51.6588
RA_OF_ASC_NODE = 97.6693
ARG_OF_PERICENTER = 42.2825
MEAN_ANOMALY   = 52.9592

EPHEMERIS_TYPE = 0
CLASSIFICATION_TYPE = U
NORAD_CAT_ID   = 43595
ELEMENT_SET_NO = 999
REV_AT_EPOCH   = 13278
BSTAR          = .56251E-3
MEAN_MOTION_DOT = .7916525E-1
MEAN_MOTION_DDOT = .12514E-4

CCSDS_OMM_VERS = 2.0
CREATION_DATE  = 
ORIGINATOR     = 

OBJECT_NAME    = SIRIUSSAT-2
OBJECT_ID      = 1998-067PH
CENTER_NAME    = EARTH
REF_FRAME      = TEME
TIME_SYSTEM    = UTC
MEAN_ELEMENT_THEORY = SGP/SGP4

EPOCH          = 2020-12-09T08:46:22.935936
MEAN_MOTION    = 16.40921535
ECCENTRICITY   = .0006261
INCLINATION    = 51.6062
RA_OF_ASC_NODE = 99.6513
ARG_OF_PERICENTER = 312.7483
MEAN_ANOMALY   = 99.6145

EPHEMERIS_TYPE = 0
CLASSIFICATION_TYPE = U
NORAD_CAT_ID   = 43596
ELEMENT_SET_NO = 999
REV_AT_EPOCH   = 13274
BSTAR          = .57179E-3
MEAN_MOTION_DOT = .8904132E-1
MEAN_MOTION_DDOT = .12494E-4

CCSDS_OMM_VERS = 2.0
CREATION_DATE  = 
ORIGINATOR     = 

OBJECT_NAME    = 1998-067PN
OBJECT_ID      = 1998-067PN
CENTER_NAME    = EARTH
REF_FRAME      = TEME
TIME_SYSTEM    = UTC
MEAN_ELEMENT_THEORY = SGP/SGP4

EPOCH          = 2020-12-14T13:40:50.968704
MEAN_MOTION    = 15.70064441
ECCENTRICITY   = .000195
INCLINATION    = 51.6342
RA_OF_ASC_NODE = 117.1946
ARG_OF_PERICENTER = 343.2802
MEAN_ANOMALY   = 16.8130

EPHEMERIS_TYPE = 0
CLASSIFICATION_TYPE = U
NORAD_CAT_ID   = 43638
ELEMENT_SET_NO = 999
REV_AT_EPOCH   = 12491
BSTAR          = .22036E-3
MEAN_MOTION_DOT = .2663E-3
MEAN_MOTION_DDOT = 0

CCSDS_OMM_VERS = 2.0
CREATION_DATE  = 
ORIGINATOR     = 

OBJECT_NAME    = 1998-067PP
OBJECT_ID      = 1998-067PP
CENTER_NAME    = EARTH
REF_FRAME      = TEME
TIME_SYSTEM    = UTC
MEAN_ELEMENT_THEORY = SGP/SGP4

EPOCH          = 2020-12-14T13:31:09.851808
MEAN_MOTION    = 15.82124404
ECCENTRICITY   = .0004264
INCLINATION    = 51.6309
RA_OF_ASC_NODE = 99.0258
ARG_OF_PERICENTER = 347.6744
MEAN_ANOMALY   = 12.4154

EPHEMERIS_TYPE = 0
CLASSIFICATION_TYPE = U
NORAD_CAT_ID   = 43639
ELEMENT_SET_NO = 999
REV_AT_EPOCH   = 12515
BSTAR          = .32436E-3
MEAN_MOTION_DOT = .67821E-3
MEAN_MOTION_DDOT = 0

CCSDS_OMM_VERS = 2.0
CREATION_DATE  = 
ORIGINATOR     = 

OBJECT_NAME    = STARS-ME
OBJECT_ID      = 1998-067PQ
CENTER_NAME    = EARTH
REF_FRAME      = TEME
TIME_SYSTEM    = UTC
MEAN_ELEMENT_THEORY = SGP/SGP4

EPOCH          = 2020-12-14T14:27:02.234880
MEAN_MOTION    = 15.73361269
ECCENTRICITY   = .0003739
INCLINATION    = 51.6322
RA_OF_ASC_NODE = 110.5686
ARG_OF_PERICENTER = 345.1163
MEAN_ANOMALY   = 14.9725

EPHEMERIS_TYPE = 0
CLASSIFICATION_TYPE = U
NORAD_CAT_ID   = 43640
ELEMENT_SET_NO = 999
REV_AT_EPOCH   = 12500
BSTAR          = .26394E-3
MEAN_MOTION_DOT = .36913E-3
MEAN_MOTION_DDOT = 0

CCSDS_OMM_VERS = 2.0
CREATION_DATE  = 
ORIGINATOR     = 

OBJECT_NAME    = ISS DEB (SEDA-AP)
OBJECT_ID      = 1998-067PU
CENTER_NAME    = EARTH
REF_FRAME      = TEME
TIME_SYSTEM    = UTC
MEAN_ELEMENT_THEORY = SGP/SGP4

EPOCH          = 2020-12-14T18:59:50.756352
MEAN_MOTION    = 15.59670844
ECCENTRICITY   = .0003734
INCLINATION    = 51.6350
RA_OF_ASC_NODE = 141.2923
ARG_OF_PERICENTER = 5.9395
MEAN_ANOMALY   = 354.1641

EPHEMERIS_TYPE = 0
CLASSIFICATION_TYPE = U
NORAD_CAT_ID   = 43870
ELEMENT_SET_NO = 999
REV_AT_EPOCH   = 11277
BSTAR          = .91402E-4
MEAN_MOTION_DOT = .6932E-4
MEAN_MOTION_DDOT = 0

CCSDS_OMM_VERS = 2.0
CREATION_DATE  = 
ORIGINATOR     = 

OBJECT_NAME    = CATSAT-2
OBJECT_ID      = 1998-067PV
CENTER_NAME    = EARTH
REF_FRAME      = TEME
TIME_SYSTEM    = UTC
MEAN_ELEMENT_THEORY = SGP/SGP4

EPOCH          = 2020-12-15T01:38:47.126400
MEAN_MOTION    = 15.76029780
ECCENTRICITY   = .0001868
INCLINATION    = 51.6389
RA_OF_ASC_NODE = 115.3798
ARG_OF_PERICENTER = 23.7137
MEAN_ANOMALY   = 336.3949

EPHEMERIS_TYPE = 0
CLASSIFICATION_TYPE = U
NORAD_CAT_ID   = 44029
ELEMENT_SET_NO = 999
REV_AT_EPOCH   = 10688
BSTAR          = .36253E-3
MEAN_MOTION_DOT = .57372E-3
MEAN_MOTION_DDOT = 0

CCSDS_OMM_VERS = 2.0
CREATION_DATE  = 
ORIGINATOR     = 

OBJECT_NAME    = DELPHINI
OBJECT_ID      = 1998-067PW
CENTER_NAME    = EARTH
REF_FRAME      = TEME
TIME_SYSTEM    = UTC
MEAN_ELEMENT_THEORY = SGP/SGP4

EPOCH          = 2020-12-15T03:39:15.062688
MEAN_MOTION    = 15.79689737
ECCENTRICITY   = .000288
INCLINATION    = 51.6312
RA_OF_ASC_NODE = 111.1971
ARG_OF_PERICENTER = 352.5723
MEAN_ANOMALY   = 7.5235

EPHEMERIS_TYPE = 0
CLASSIFICATION_TYPE = U
NORAD_CAT_ID   = 44030
ELEMENT_SET_NO = 999
REV_AT_EPOCH   = 10691
BSTAR          = .45216E-3
MEAN_MOTION_DOT = .84846E-3
MEAN_MOTION_DDOT = 0

CCSDS_OMM_VERS = 2.0
CREATION_DATE  = 
ORIGINATOR     = 

OBJECT_NAME    = UNITE
OBJECT_ID      = 1998-067PX
CENTER_NAME    = EARTH
REF_FRAME      = TEME
TIME_SYSTEM    = UTC
MEAN_ELEMENT_THEORY = SGP/SGP4

EPOCH          = 2020-12-14T18:32:04.342272
MEAN_MOTION    = 15.66633016
ECCENTRICITY   = .0001986
INCLINATION    = 51.6362
RA_OF_ASC_NODE = 130.6441
ARG_OF_PERICENTER = 25.9785
MEAN_ANOMALY   = 334.1310

EPHEMERIS_TYPE = 0
CLASSIFICATION_TYPE = U
NORAD_CAT_ID   = 44031
ELEMENT_SET_NO = 999
REV_AT_EPOCH   = 10662
BSTAR          = .2186E-3
MEAN_MOTION_DOT = .22885E-3
MEAN_MOTION_DDOT = 0

